UNKNOWN                 
1 87014U          26013.70022192  .00001863  00000+0  28937-2 0  9993
2 87014 100.4881 344.7649 0043303 163.0455  15.9481 13.52028336595233
UNKNOWN                 
1 87029U          26008.31472458  .00001526  00000+0  95182-3 0  9997
2 87029  98.7547  47.6321 0083014 175.3683 184.8271 14.04563715596737
UNKNOWN                 
1 87042U          26013.39187834  .00000652  00000+0  41114-3 0  9992
2 87042  98.7107  60.4608 0042744   7.1032 353.0734 14.07170201558414
UNKNOWN                 
1 87051U          26014.15040708  .00001677  00000+0  60376-3 0  9994
2 87051  65.7268 177.0588 0712209 126.5774 240.3000 13.46015543592946
UNKNOWN                 
1 87054U          26015.54841054  .00001321  00000+0  76177-3 0  9996
2 87054 100.0930 264.1206 0012398 255.1277 104.8517 14.11225966621093
UNKNOWN                 
1 87071U          26014.85164058  .00002611  00000+0  98015-3 0  9998
2 87071  61.2196 173.4005 0473926 254.0412 100.7926 13.85891688607071
UNKNOWN                 
1 87129U          26011.71112028  .00000126  00000+0  12427-2 0  9995
2 87129 102.2597 108.0373 0027395  30.5354 329.7298 12.42829761550397
UNKNOWN                 
1 87159U          26012.38806880  .00000942  00000+0  10880-2 0  9995
2 87159  90.3481  70.5119 0107455 165.7947 194.6277 13.66148384560877
UNKNOWN                 
1 87163U          26014.77860173  .00000665  00000+0  22744-3 0  9995
2 87163  65.5990 154.8044 0643586  49.7952 315.7630 13.64097199582026
UNKNOWN                 
1 87164U          26014.33230143  .00001880  00000+0  39850-3 0  9992
2 87164  65.2023 233.0257 0101079  39.4010 321.4384 14.58786496640523
UNKNOWN                 
1 87204U          26014.05066846  .00001492  00000+0  59429-3 0  9996
2 87204  98.5352 239.2200 0044871 229.6052 130.1210 14.29518919630054
UNKNOWN                 
1 87211U          26014.24775671  .00002106  00000+0  58585-3 0  9993
2 87211  99.0866  21.3909 0053890  63.0691   0.4525 14.46734968712472
