CCSDS_OMM_VERS = 2.0
CREATION_DATE  = 
ORIGINATOR     = 

OBJECT_NAME    = UNKNOWN
OBJECT_ID      = 
CENTER_NAME    = EARTH
REF_FRAME      = TEME
TIME_SYSTEM    = UTC
MEAN_ELEMENT_THEORY = SGP/SGP4

EPOCH          = 2026-01-13T16:48:19.173888
MEAN_MOTION    = 13.52028336
ECCENTRICITY   = .0043303
INCLINATION    = 100.4881
RA_OF_ASC_NODE = 344.7649
ARG_OF_PERICENTER = 163.0455
MEAN_ANOMALY   = 15.9481

EPHEMERIS_TYPE = 0
CLASSIFICATION_TYPE = U
NORAD_CAT_ID   = 87014
ELEMENT_SET_NO = 999
REV_AT_EPOCH   = 59523
BSTAR          = .28937E-2
MEAN_MOTION_DOT = .1863E-4
MEAN_MOTION_DDOT = 0

CCSDS_OMM_VERS = 2.0
CREATION_DATE  = 
ORIGINATOR     = 

OBJECT_NAME    = UNKNOWN
OBJECT_ID      = 
CENTER_NAME    = EARTH
REF_FRAME      = TEME
TIME_SYSTEM    = UTC
MEAN_ELEMENT_THEORY = SGP/SGP4

EPOCH          = 2026-01-08T07:33:12.203712
MEAN_MOTION    = 14.04563715
ECCENTRICITY   = .0083014
INCLINATION    = 98.7547
RA_OF_ASC_NODE = 47.6321
ARG_OF_PERICENTER = 175.3683
MEAN_ANOMALY   = 184.8271

EPHEMERIS_TYPE = 0
CLASSIFICATION_TYPE = U
NORAD_CAT_ID   = 87029
ELEMENT_SET_NO = 999
REV_AT_EPOCH   = 59673
BSTAR          = .95182E-3
MEAN_MOTION_DOT = .1526E-4
MEAN_MOTION_DDOT = 0

CCSDS_OMM_VERS = 2.0
CREATION_DATE  = 
ORIGINATOR     = 

OBJECT_NAME    = UNKNOWN
OBJECT_ID      = 
CENTER_NAME    = EARTH
REF_FRAME      = TEME
TIME_SYSTEM    = UTC
MEAN_ELEMENT_THEORY = SGP/SGP4

EPOCH          = 2026-01-13T09:24:18.288576
MEAN_MOTION    = 14.07170201
ECCENTRICITY   = .0042744
INCLINATION    = 98.7107
RA_OF_ASC_NODE = 60.4608
ARG_OF_PERICENTER = 7.1032
MEAN_ANOMALY   = 353.0734

EPHEMERIS_TYPE = 0
CLASSIFICATION_TYPE = U
NORAD_CAT_ID   = 87042
ELEMENT_SET_NO = 999
REV_AT_EPOCH   = 55841
BSTAR          = .41114E-3
MEAN_MOTION_DOT = .652E-5
MEAN_MOTION_DDOT = 0

CCSDS_OMM_VERS = 2.0
CREATION_DATE  = 
ORIGINATOR     = 

OBJECT_NAME    = UNKNOWN
OBJECT_ID      = 
CENTER_NAME    = EARTH
REF_FRAME      = TEME
TIME_SYSTEM    = UTC
MEAN_ELEMENT_THEORY = SGP/SGP4

EPOCH          = 2026-01-14T03:36:35.171712
MEAN_MOTION    = 13.46015543
ECCENTRICITY   = .0712209
INCLINATION    = 65.7268
RA_OF_ASC_NODE = 177.0588
ARG_OF_PERICENTER = 126.5774
MEAN_ANOMALY   = 240.3000

EPHEMERIS_TYPE = 0
CLASSIFICATION_TYPE = U
NORAD_CAT_ID   = 87051
ELEMENT_SET_NO = 999
REV_AT_EPOCH   = 59294
BSTAR          = .60376E-3
MEAN_MOTION_DOT = .1677E-4
MEAN_MOTION_DDOT = 0

CCSDS_OMM_VERS = 2.0
CREATION_DATE  = 
ORIGINATOR     = 

OBJECT_NAME    = UNKNOWN
OBJECT_ID      = 
CENTER_NAME    = EARTH
REF_FRAME      = TEME
TIME_SYSTEM    = UTC
MEAN_ELEMENT_THEORY = SGP/SGP4

EPOCH          = 2026-01-15T13:09:42.670656
MEAN_MOTION    = 14.11225966
ECCENTRICITY   = .0012398
INCLINATION    = 100.0930
RA_OF_ASC_NODE = 264.1206
ARG_OF_PERICENTER = 255.1277
MEAN_ANOMALY   = 104.8517

EPHEMERIS_TYPE = 0
CLASSIFICATION_TYPE = U
NORAD_CAT_ID   = 87054
ELEMENT_SET_NO = 999
REV_AT_EPOCH   = 62109
BSTAR          = .76177E-3
MEAN_MOTION_DOT = .1321E-4
MEAN_MOTION_DDOT = 0

CCSDS_OMM_VERS = 2.0
CREATION_DATE  = 
ORIGINATOR     = 

OBJECT_NAME    = UNKNOWN
OBJECT_ID      = 
CENTER_NAME    = EARTH
REF_FRAME      = TEME
TIME_SYSTEM    = UTC
MEAN_ELEMENT_THEORY = SGP/SGP4

EPOCH          = 2026-01-14T20:26:21.746112
MEAN_MOTION    = 13.85891688
ECCENTRICITY   = .0473926
INCLINATION    = 61.2196
RA_OF_ASC_NODE = 173.4005
ARG_OF_PERICENTER = 254.0412
MEAN_ANOMALY   = 100.7926

EPHEMERIS_TYPE = 0
CLASSIFICATION_TYPE = U
NORAD_CAT_ID   = 87071
ELEMENT_SET_NO = 999
REV_AT_EPOCH   = 60707
BSTAR          = .98015E-3
MEAN_MOTION_DOT = .2611E-4
MEAN_MOTION_DDOT = 0

CCSDS_OMM_VERS = 2.0
CREATION_DATE  = 
ORIGINATOR     = 

OBJECT_NAME    = UNKNOWN
OBJECT_ID      = 
CENTER_NAME    = EARTH
REF_FRAME      = TEME
TIME_SYSTEM    = UTC
MEAN_ELEMENT_THEORY = SGP/SGP4

EPOCH          = 2026-01-11T17:04:00.792192
MEAN_MOTION    = 12.42829761
ECCENTRICITY   = .0027395
INCLINATION    = 102.2597
RA_OF_ASC_NODE = 108.0373
ARG_OF_PERICENTER = 30.5354
MEAN_ANOMALY   = 329.7298

EPHEMERIS_TYPE = 0
CLASSIFICATION_TYPE = U
NORAD_CAT_ID   = 87129
ELEMENT_SET_NO = 999
REV_AT_EPOCH   = 55039
BSTAR          = .12427E-2
MEAN_MOTION_DOT = .126E-5
MEAN_MOTION_DDOT = 0

CCSDS_OMM_VERS = 2.0
CREATION_DATE  = 
ORIGINATOR     = 

OBJECT_NAME    = UNKNOWN
OBJECT_ID      = 
CENTER_NAME    = EARTH
REF_FRAME      = TEME
TIME_SYSTEM    = UTC
MEAN_ELEMENT_THEORY = SGP/SGP4

EPOCH          = 2026-01-12T09:18:49.144320
MEAN_MOTION    = 13.66148384
ECCENTRICITY   = .0107455
INCLINATION    = 90.3481
RA_OF_ASC_NODE = 70.5119
ARG_OF_PERICENTER = 165.7947
MEAN_ANOMALY   = 194.6277

EPHEMERIS_TYPE = 0
CLASSIFICATION_TYPE = U
NORAD_CAT_ID   = 87159
ELEMENT_SET_NO = 999
REV_AT_EPOCH   = 56087
BSTAR          = .1088E-2
MEAN_MOTION_DOT = .942E-5
MEAN_MOTION_DDOT = 0

CCSDS_OMM_VERS = 2.0
CREATION_DATE  = 
ORIGINATOR     = 

OBJECT_NAME    = UNKNOWN
OBJECT_ID      = 
CENTER_NAME    = EARTH
REF_FRAME      = TEME
TIME_SYSTEM    = UTC
MEAN_ELEMENT_THEORY = SGP/SGP4

EPOCH          = 2026-01-14T18:41:11.189472
MEAN_MOTION    = 13.64097199
ECCENTRICITY   = .0643586
INCLINATION    = 65.5990
RA_OF_ASC_NODE = 154.8044
ARG_OF_PERICENTER = 49.7952
MEAN_ANOMALY   = 315.7630

EPHEMERIS_TYPE = 0
CLASSIFICATION_TYPE = U
NORAD_CAT_ID   = 87163
ELEMENT_SET_NO = 999
REV_AT_EPOCH   = 58202
BSTAR          = .22744E-3
MEAN_MOTION_DOT = .665E-5
MEAN_MOTION_DDOT = 0

CCSDS_OMM_VERS = 2.0
CREATION_DATE  = 
ORIGINATOR     = 

OBJECT_NAME    = UNKNOWN
OBJECT_ID      = 
CENTER_NAME    = EARTH
REF_FRAME      = TEME
TIME_SYSTEM    = UTC
MEAN_ELEMENT_THEORY = SGP/SGP4

EPOCH          = 2026-01-14T07:58:30.843552
MEAN_MOTION    = 14.58786496
ECCENTRICITY   = .0101079
INCLINATION    = 65.2023
RA_OF_ASC_NODE = 233.0257
ARG_OF_PERICENTER = 39.4010
MEAN_ANOMALY   = 321.4384

EPHEMERIS_TYPE = 0
CLASSIFICATION_TYPE = U
NORAD_CAT_ID   = 87164
ELEMENT_SET_NO = 999
REV_AT_EPOCH   = 64052
BSTAR          = .3985E-3
MEAN_MOTION_DOT = .188E-4
MEAN_MOTION_DDOT = 0

CCSDS_OMM_VERS = 2.0
CREATION_DATE  = 
ORIGINATOR     = 

OBJECT_NAME    = UNKNOWN
OBJECT_ID      = 
CENTER_NAME    = EARTH
REF_FRAME      = TEME
TIME_SYSTEM    = UTC
MEAN_ELEMENT_THEORY = SGP/SGP4

EPOCH          = 2026-01-14T01:12:57.754944
MEAN_MOTION    = 14.29518919
ECCENTRICITY   = .0044871
INCLINATION    = 98.5352
RA_OF_ASC_NODE = 239.2200
ARG_OF_PERICENTER = 229.6052
MEAN_ANOMALY   = 130.1210

EPHEMERIS_TYPE = 0
CLASSIFICATION_TYPE = U
NORAD_CAT_ID   = 87204
ELEMENT_SET_NO = 999
REV_AT_EPOCH   = 63005
BSTAR          = .59429E-3
MEAN_MOTION_DOT = .1492E-4
MEAN_MOTION_DDOT = 0

CCSDS_OMM_VERS = 2.0
CREATION_DATE  = 
ORIGINATOR     = 

OBJECT_NAME    = UNKNOWN
OBJECT_ID      = 
CENTER_NAME    = EARTH
REF_FRAME      = TEME
TIME_SYSTEM    = UTC
MEAN_ELEMENT_THEORY = SGP/SGP4

EPOCH          = 2026-01-14T05:56:46.179744
MEAN_MOTION    = 14.46734968
ECCENTRICITY   = .005389
INCLINATION    = 99.0866
RA_OF_ASC_NODE = 21.3909
ARG_OF_PERICENTER = 63.0691
MEAN_ANOMALY   = 0.4525

EPHEMERIS_TYPE = 0
CLASSIFICATION_TYPE = U
NORAD_CAT_ID   = 87211
ELEMENT_SET_NO = 999
REV_AT_EPOCH   = 71247
BSTAR          = .58585E-3
MEAN_MOTION_DOT = .2106E-4
MEAN_MOTION_DDOT = 0

